OBJECT_NAME,OBJECT_ID,EPOCH,MEAN_MOTION,ECCENTRICITY,INCLINATION,RA_OF_ASC_NODE,ARG_OF_PERICENTER,MEAN_ANOMALY,EPHEMERIS_TYPE,CLASSIFICATION_TYPE,NORAD_CAT_ID,ELEMENT_SET_NO,REV_AT_EPOCH,BSTAR,MEAN_MOTION_DOT,MEAN_MOTION_DDOT
ONEWEB-0597,2022-166X,2026-07-20T08:48:28.056960,13.21824216,.00019308,87.9229,237.3834,94.6492,265.4862,0,U,54663,999,17592,.9861303E-5,.17E-6,0
ONEWEB-0600,2022-166Y,2026-07-20T19:15:51.259104,13.21826173,.00020126,87.9231,237.2879,101.1937,258.9423,0,U,54664,999,17595,.64228671E-4,.4E-6,0
ONEWEB-0601,2022-166Z,2026-07-20T19:03:43.917120,13.21825519,.00017525,87.9229,237.3054,95.7913,264.3421,0,U,54665,999,17614,.21074122E-4,.22E-6,0
ONEWEB-0602,2022-166AA,2026-07-20T20:03:04.410144,13.21824215,.00019722,87.9226,237.3031,102.0963,258.0392,0,U,54666,999,17599,.27761509E-4,.24E-6,0
ONEWEB-0603,2022-166AB,2026-07-20T03:50:31.108128,13.21824525,.00019795,87.9237,237.3978,96.3929,263.7430,0,U,54667,999,17583,.10368171E-3,.56E-6,0
ONEWEB-0604,2022-166AC,2026-07-20T09:00:34.276608,13.21824975,.00021015,87.9241,237.3710,96.5971,263.5402,0,U,54668,999,17582,.12149183E-3,.63E-6,0
ONEWEB-0605,2022-166AD,2026-07-20T03:23:52.478304,13.21824502,.00017462,87.9229,237.4280,78.9829,281.1501,0,U,54669,999,17586,.11108551E-3,.59E-6,0
ONEWEB-0606,2022-166AE,2026-07-20T03:55:21.812160,13.21825881,.00021805,87.9229,237.4359,98.0699,262.0683,0,U,54670,999,17592,-.16813844E-3,-.56E-6,0
ONEWEB-0607,2022-166AF,2026-07-20T08:33:56.765664,13.21826170,.0001936,87.9238,237.3708,97.4023,262.7331,0,U,54671,999,17592,.88242985E-4,.49E-6,0
ONEWEB-0608,2022-166AG,2026-07-20T19:37:37.877664,13.21823556,.00016058,87.9242,237.2770,87.4654,272.6664,0,U,54672,999,17599,-.26178188E-4,.2E-7,0
ONEWEB-0610,2022-166AH,2026-07-20T08:14:34.026432,13.21826393,.00014507,87.9230,237.3818,96.7292,263.4007,0,U,54673,999,17583,.10754379E-3,.57E-6,0
ONEWEB-0611,2022-166AJ,2026-07-20T18:58:51.549024,13.21825138,.00021401,87.9229,237.2885,95.3209,264.8170,0,U,54674,999,17588,-.24981404E-3,-.9E-6,0
ONEWEB-0612,2022-166AK,2026-07-20T08:24:14.479776,13.21826994,.00018954,87.9243,237.3757,93.7688,266.3662,0,U,54675,999,17581,.1097434E-3,.58E-6,0
ONEWEB-0615,2022-166AL,2026-07-20T20:38:11.501376,13.21824452,.00022596,87.9233,237.2858,99.4101,260.7289,0,U,54676,999,17589,-.78706504E-4,-.19E-6,0
ONEWEB-0655,2022-166AM,2026-07-20T09:10:16.012992,13.21824005,.00019331,87.9229,237.3817,101.0456,259.0895,0,U,54677,999,17582,-.10458571E-3,-.3E-6,0
ONEWEB-0659,2022-166AN,2026-07-20T22:17:30.797952,13.21825136,.00020224,87.9229,237.2723,93.3630,266.7735,0,U,54678,999,17598,-.19676141E-3,-.68E-6,0
ONEWEB-0685,2022-166AP,2026-07-20T09:33:36.171648,13.21989312,.00022645,87.9156,237.3689,89.6420,270.4974,0,U,54679,999,17580,.15777761E-1,.655E-4,0
ONEWEB-0712,2022-166AQ,2026-07-20T10:08:38.389056,13.16595990,.00018822,87.9077,222.1729,106.6322,253.5016,0,U,54680,999,17643,.34418402E-3,.144E-5,0
ONEWEB-0714,2022-166AR,2026-07-20T07:52:46.072992,13.21825701,.00021082,87.9229,237.3814,103.8053,256.3315,0,U,54681,999,17591,-.10465376E-3,-.3E-6,0
ONEWEB-0532,2023-004A,2026-07-20T21:36:03.411936,13.17648766,.00018458,87.9154,359.1572,83.4137,276.7205,0,U,55140,999,17202,.77426808E-4,.43E-6,0
ONEWEB-0533,2023-004B,2026-07-20T22:12:45.773856,13.12442283,.00016563,87.8972,343.9629,98.2208,261.9108,0,U,55141,999,17248,.11523812E-2,.427E-5,0
ONEWEB-0541,2023-004C,2026-07-20T21:43:52.990752,13.11418229,.0001982,87.8896,14.3462,88.5863,271.5492,0,U,55142,999,17036,-.77800826E-3,-.263E-5,0
ONEWEB-0543,2023-004D,2026-07-20T20:28:22.037376,13.18686927,.00019453,87.9191,328.7741,105.7937,254.3409,0,U,55143,999,17413,.12122233E-3,.61E-6,0
ONEWEB-0544,2023-004E,2026-07-20T20:18:39.341952,13.18684630,.00021124,87.9193,328.7748,101.4382,258.6988,0,U,55144,999,17413,-.21669666E-4,.4E-7,0
ONEWEB-0560,2023-004F,2026-07-20T21:58:13.062144,13.18685792,.00021317,87.9192,328.7507,104.1459,255.9910,0,U,55145,999,17415,.10558744E-3,.55E-6,0
ONEWEB-0565,2023-004G,2026-07-20T21:48:30.257856,13.18685214,.00022607,87.9183,328.7766,93.0740,267.0651,0,U,55146,999,17414,.10819259E-4,.17E-6,0
ONEWEB-0567,2023-004H,2026-07-20T21:38:46.829760,13.18685606,.00022473,87.9194,328.7651,96.7591,263.3796,0,U,55147,999,17414,-.68517428E-3,-.257E-5,0
ONEWEB-0569,2023-004J,2026-07-20T19:56:37.501440,13.13470361,.00027993,87.8990,313.5280,108.0571,252.0864,0,U,55148,999,17459,.93186082E-3,.353E-5,0
ONEWEB-0570,2023-004K,2026-07-20T21:26:38.725728,13.18684797,.00019258,87.9192,328.7643,86.2560,273.8793,0,U,55149,999,17413,.16276961E-4,.19E-6,0
ONEWEB-0571,2023-004L,2026-07-20T21:16:57.106848,13.18686093,.00031568,87.9193,328.7654,95.5005,264.6487,0,U,55150,999,17414,-.17186148E-3,-.55E-6,0
